{"type": "FeatureCollection", "features": [ {"type": "Feature", "properties": {"norad_id": 66906, "name": "1998-067XS", "group": "last-30-days", "lat": 6.1393903752016135, "lon": -64.62938373763167, "alt_km": 412.86062176648284, "timestamp": "2025-12-17T04:57:43.205131+00:00", "meta": {"OBJECT_NAME": "1998-067XS", "OBJECT_ID": "1998-067XS", "EPOCH": "2025-12-16T12:45:26.228448", "MEAN_MOTION": 15.50774437, "ECCENTRICITY": 0.00032711, "INCLINATION": 51.6305, "RA_OF_ASC_NODE": 123.6106, "ARG_OF_PERICENTER": 220.1232, "MEAN_ANOMALY": 139.9515, "EPHEMERIS_TYPE": 0, "CLASSIFICATION_TYPE": "U", "NORAD_CAT_ID": 66906, "ELEMENT_SET_NO": 999, "REV_AT_EPOCH": 220, "BSTAR": 0.00042417105, "MEAN_MOTION_DOT": 0.00024501, "MEAN_MOTION_DDOT": 0}, "tle": {"line1": "1 66906U 98067XS  25350.53155357  .00024501  00000+0  42417-3 0  9998", "line2": "2 66906  51.6305 123.6106 0003271 220.1232 139.9515 15.50774437  2203"}}, "geometry": {"type": "Point", "coordinates": [-64.62938373763167, 6.1393903752016135]}}, {"type": "Feature", "properties": {"norad_id": 66907, "name": "1998-067XT", "group": "last-30-days", "lat": -18.804027117057192, "lon": -44.15593880745182, "alt_km": 411.83573698552755, "timestamp": "2025-12-17T04:57:43.205144+00:00", "meta": {"OBJECT_NAME": "1998-067XT", "OBJECT_ID": "1998-067XT", "EPOCH": "2025-12-16T20:21:31.143168", "MEAN_MOTION": 15.51965497, "ECCENTRICITY": 0.00040676, "INCLINATION": 51.63, "RA_OF_ASC_NODE": 121.975, "ARG_OF_PERICENTER": 250.8278, "MEAN_ANOMALY": 109.2271, "EPHEMERIS_TYPE": 0, "CLASSIFICATION_TYPE": "U", "NORAD_CAT_ID": 66907, "ELEMENT_SET_NO": 999, "REV_AT_EPOCH": 225, "BSTAR": 0.00093338761, "MEAN_MOTION_DOT": 0.00057093, "MEAN_MOTION_DDOT": 0}, "tle": {"line1": "1 66907U 98067XT  25350.84827712  .00057093  00000+0  93339-3 0  9995", "line2": "2 66907  51.6300 121.9750 0004067 250.8278 109.2271 15.51965497  2252"}}, "geometry": {"type": "Point", "coordinates": [-44.15593880745182, -18.804027117057192]}}, {"type": "Feature", "properties": {"norad_id": 66908, "name": "1998-067XU", "group": "last-30-days", "lat": -21.263685258832638, "lon": -41.85621132730146, "alt_km": 411.5492935795419, "timestamp": "2025-12-17T04:57:43.205156+00:00", "meta": {"OBJECT_NAME": "1998-067XU", "OBJECT_ID": "1998-067XU", "EPOCH": "2025-12-16T14:09:49.500000", "MEAN_MOTION": 15.5202573, "ECCENTRICITY": 0.00042401, "INCLINATION": 51.6296, "RA_OF_ASC_NODE": 123.2512, "ARG_OF_PERICENTER": 248.5284, "MEAN_ANOMALY": 111.5254, "EPHEMERIS_TYPE": 0, "CLASSIFICATION_TYPE": "U", "NORAD_CAT_ID": 66908, "ELEMENT_SET_NO": 999, "REV_AT_EPOCH": 221, "BSTAR": 0.00090601602, "MEAN_MOTION_DOT": 0.00055516, "MEAN_MOTION_DDOT": 0}, "tle": {"line1": "1 66908U 98067XU  25350.59015625  .00055516  00000+0  90602-3 0  9998", "line2": "2 66908  51.6296 123.2512 0004240 248.5284 111.5254 15.52025730  2213"}}, "geometry": {"type": "Point", "coordinates": [-41.85621132730146, -21.263685258832638]}}, {"type": "Feature", "properties": {"norad_id": 66909, "name": "SILVERSAT", "group": "last-30-days", "lat": -24.197707229580498, "lon": -38.966540928470124, "alt_km": 411.38103263724133, "timestamp": "2025-12-17T04:57:43.205167+00:00", "meta": {"OBJECT_NAME": "SILVERSAT", "OBJECT_ID": "1998-067XV", "EPOCH": "2025-12-16T14:08:52.774080", "MEAN_MOTION": 15.52156791, "ECCENTRICITY": 0.00040754, "INCLINATION": 51.6305, "RA_OF_ASC_NODE": 123.2468, "ARG_OF_PERICENTER": 249.7085, "MEAN_ANOMALY": 110.3467, "EPHEMERIS_TYPE": 0, "CLASSIFICATION_TYPE": "U", "NORAD_CAT_ID": 66909, "ELEMENT_SET_NO": 999, "REV_AT_EPOCH": 221, "BSTAR": 0.00095917161, "MEAN_MOTION_DOT": 0.00059105, "MEAN_MOTION_DDOT": 0}, "tle": {"line1": "1 66909U 98067XV  25350.58949970  .00059105  00000+0  95917-3 0  9999", "line2": "2 66909  51.6305 123.2468 0004075 249.7085 110.3467 15.52156791  2218"}}, "geometry": {"type": "Point", "coordinates": [-38.966540928470124, -24.197707229580498]}}, {"type": "Feature", "properties": {"norad_id": 66910, "name": "1998-067XW", "group": "last-30-days", "lat": -31.1385393197293, "lon": -31.243657832875236, "alt_km": 410.69900346897066, "timestamp": "2025-12-17T04:57:43.205176+00:00", "meta": {"OBJECT_NAME": "1998-067XW", "OBJECT_ID": "1998-067XW", "EPOCH": "2025-12-16T14:06:24.222240", "MEAN_MOTION": 15.52215974, "ECCENTRICITY": 0.00046619, "INCLINATION": 51.6297, "RA_OF_ASC_NODE": 123.2359, "ARG_OF_PERICENTER": 228.2549, "MEAN_ANOMALY": 131.8043, "EPHEMERIS_TYPE": 0, "CLASSIFICATION_TYPE": "U", "NORAD_CAT_ID": 66910, "ELEMENT_SET_NO": 999, "REV_AT_EPOCH": 221, "BSTAR": 0.00082001517, "MEAN_MOTION_DOT": 0.00050519, "MEAN_MOTION_DDOT": 0}, "tle": {"line1": "1 66910U 98067XW  25350.58778035  .00050519  00000+0  82002-3 0  9994", "line2": "2 66910  51.6297 123.2359 0004661 228.2549 131.8043 15.52215974  2214"}}, "geometry": {"type": "Point", "coordinates": [-31.243657832875236, -31.1385393197293]}}, {"type": "Feature", "properties": {"norad_id": 66911, "name": "1998-067XX", "group": "last-30-days", "lat": -37.0941858469324, "lon": -23.056618359900266, "alt_km": 410.1267225912652, "timestamp": "2025-12-17T04:57:43.205185+00:00", "meta": {"OBJECT_NAME": "1998-067XX", "OBJECT_ID": "1998-067XX", "EPOCH": "2025-12-16T21:47:43.238976", "MEAN_MOTION": 15.52613586, "ECCENTRICITY": 0.00043348, "INCLINATION": 51.6301, "RA_OF_ASC_NODE": 121.625, "ARG_OF_PERICENTER": 233.1446, "MEAN_ANOMALY": 126.9147, "EPHEMERIS_TYPE": 0, "CLASSIFICATION_TYPE": "U", "NORAD_CAT_ID": 66911, "ELEMENT_SET_NO": 999, "REV_AT_EPOCH": 225, "BSTAR": 0.0010270011, "MEAN_MOTION_DOT": 0.00064419, "MEAN_MOTION_DDOT": 0}, "tle": {"line1": "1 66911U 98067XX  25350.90813934  .00064419  00000+0  10270-2 0  9990", "line2": "2 66911  51.6301 121.6250 0004334 233.1446 126.9147 15.52613586  2256"}}, "geometry": {"type": "Point", "coordinates": [-23.056618359900266, -37.0941858469324]}}, {"type": "Feature", "properties": {"norad_id": 66912, "name": "1998-067XY", "group": "last-30-days", "lat": -10.034708972125433, "lon": -51.72467625518331, "alt_km": 412.39016899849594, "timestamp": "2025-12-17T04:57:43.205195+00:00", "meta": {"OBJECT_NAME": "1998-067XY", "OBJECT_ID": "1998-067XY", "EPOCH": "2025-12-16T15:46:04.337760", "MEAN_MOTION": 15.51521639, "ECCENTRICITY": 0.00042238, "INCLINATION": 51.6299, "RA_OF_ASC_NODE": 122.9476, "ARG_OF_PERICENTER": 244.4597, "MEAN_ANOMALY": 115.5956, "EPHEMERIS_TYPE": 0, "CLASSIFICATION_TYPE": "U", "NORAD_CAT_ID": 66912, "ELEMENT_SET_NO": 999, "REV_AT_EPOCH": 221, "BSTAR": 0.00074796807, "MEAN_MOTION_DOT": 0.00044864, "MEAN_MOTION_DDOT": 0}, "tle": {"line1": "1 66912U 98067XY  25350.65699465  .00044864  00000+0  74797-3 0  9991", "line2": "2 66912  51.6299 122.9476 0004223 244.4597 115.5956 15.51521639  2210"}}, "geometry": {"type": "Point", "coordinates": [-51.72467625518331, -10.034708972125433]}}, {"type": "Feature", "properties": {"norad_id": 66913, "name": "2025-284A", "group": "last-30-days", "lat": -24.232860717858962, "lon": 119.74327908382807, "alt_km": 536.0949241063418, "timestamp": "2025-12-17T04:57:43.205204+00:00", "meta": {"OBJECT_NAME": "2025-284A", "OBJECT_ID": "2025-284A", "EPOCH": "2025-12-16T22:44:10.528512", "MEAN_MOTION": 15.16439039, "ECCENTRICITY": 0.00202891, "INCLINATION": 80.4051, "RA_OF_ASC_NODE": 124.4376, "ARG_OF_PERICENTER": 160.9258, "MEAN_ANOMALY": 199.2733, "EPHEMERIS_TYPE": 0, "CLASSIFICATION_TYPE": "U", "NORAD_CAT_ID": 66913, "ELEMENT_SET_NO": 999, "REV_AT_EPOCH": 176, "BSTAR": 0.00043058043, "MEAN_MOTION_DOT": 8.437e-05, "MEAN_MOTION_DDOT": 0}, "tle": {"line1": "1 66913U 25284A   25350.94734408  .00008437  00000+0  43058-3 0  9994", "line2": "2 66913  80.4051 124.4376 0020289 160.9258 199.2733 15.16439039  1763"}}, "geometry": {"type": "Point", "coordinates": [119.74327908382807, -24.232860717858962]}}, {"type": "Feature", "properties": {"norad_id": 66914, "name": "2025-284B", "group": "last-30-days", "lat": -5.465882861373949, "lon": 123.17611073596454, "alt_km": 515.5950705537634, "timestamp": "2025-12-17T04:57:43.205213+00:00", "meta": {"OBJECT_NAME": "2025-284B", "OBJECT_ID": "2025-284B", "EPOCH": "2025-12-16T06:51:11.417184", "MEAN_MOTION": 15.18985981, "ECCENTRICITY": 0.00081793, "INCLINATION": 80.4045, "RA_OF_ASC_NODE": 125.2713, "ARG_OF_PERICENTER": 234.9626, "MEAN_ANOMALY": 125.0834, "EPHEMERIS_TYPE": 0, "CLASSIFICATION_TYPE": "U", "NORAD_CAT_ID": 66914, "ELEMENT_SET_NO": 999, "REV_AT_EPOCH": 166, "BSTAR": 0.00038444995, "MEAN_MOTION_DOT": 8.068e-05, "MEAN_MOTION_DDOT": 0}, "tle": {"line1": "1 66914U 25284B   25350.28554881  .00008068  00000+0  38445-3 0  9991", "line2": "2 66914  80.4045 125.2713 0008179 234.9626 125.0834 15.18985981  1668"}}, "geometry": {"type": "Point", "coordinates": [123.17611073596454, -5.465882861373949]}}, {"type": "Feature", "properties": {"norad_id": 66915, "name": "HULIANWANG DIGUI-105", "group": "last-30-days", "lat": 49.5939015030158, "lon": -161.368131978785, "alt_km": 879.4032637051587, "timestamp": "2025-12-17T04:57:43.205224+00:00", "meta": {"OBJECT_NAME": "HULIANWANG DIGUI-105", "OBJECT_ID": "2025-285A", "EPOCH": "2025-12-16T23:22:47.904384", "MEAN_MOTION": 14.03717093, "ECCENTRICITY": 0.00079636, "INCLINATION": 50.0058, "RA_OF_ASC_NODE": 100.0293, "ARG_OF_PERICENTER": 296.8829, "MEAN_ANOMALY": 63.1261, "EPHEMERIS_TYPE": 0, "CLASSIFICATION_TYPE": "U", "NORAD_CAT_ID": 66915, "ELEMENT_SET_NO": 999, "REV_AT_EPOCH": 150, "BSTAR": 0.00017788391, "MEAN_MOTION_DOT": 1.3e-06, "MEAN_MOTION_DDOT": 0}, "tle": {"line1": "1 66915U 25285A   25350.97416556  .00000130  00000+0  17788-3 0  9994", "line2": "2 66915  50.0058 100.0293 0007963 296.8829  63.1261 14.03717093  1501"}}, "geometry": {"type": "Point", "coordinates": [-161.368131978785, 49.5939015030158]}}]}